COMMENT,ORIGINATOR,NORAD_CAT_ID,OBJECT_NAME,OBJECT_TYPE,CLASSIFICATION_TYPE,INTLDES,EPOCH,EPOCH_MICROSECONDS,MEAN_MOTION,ECCENTRICITY,INCLINATION,RA_OF_ASC_NODE,ARG_OF_PERICENTER,MEAN_ANOMALY,EPHEMERIS_TYPE,ELEMENT_SET_NO,REV_AT_EPOCH,BSTAR,MEAN_MOTION_DOT,MEAN_MOTION_DDOT,FILE,TLE_LINE0,TLE_LINE1,TLE_LINE2,OBJECT_ID,OBJECT_NUMBER,SEMIMAJOR_AXIS,PERIOD,APOGEE,PERIGEE,DECAYED,date
GENERATED VIA SPACETRACK.ORG API,18 SPCS,48890,SPACEBEE-104,PAYLOAD,U,21059M,2023/3/12 8:35,334112,15.25252854,0.0008026,97.5805,206.4215,253.8519,106.1836,0,999,9460,0.0019078,0.000482,0,3858358,0 SPACEBEE-104,1 48890U 21059M   23071.35827933  .00048200  00000-0  19078-2 0  9990,2 48890  97.5805 206.4215 0008026 253.8519 106.1836 15.25252854 94607,2021-059M,48890,6868.163,94.411,495.541,484.516,0,
GENERATED VIA SPACETRACK.ORG API,18 SPCS,48890,SPACEBEE-104,PAYLOAD,U,21059M,2023/3/12 8:35,334112,15.25252854,0.0008026,97.5805,206.4215,253.8519,106.1836,0,999,9460,0.0019078,0.000482,0,3858534,0 SPACEBEE-104,1 48890U 21059M   23071.35827933  .00048200  00000-0  19078-2 0  9990,2 48890  97.5805 206.4215 0008026 253.8519 106.1836 15.25252854 94607,2021-059M,48890,6868.163,94.411,495.541,484.516,0,
GENERATED VIA SPACETRACK.ORG API,18 SPCS,48890,SPACEBEE-104,PAYLOAD,U,21059M,2023/3/12 22:46,734080,15.25303659,0.0008053,97.5801,207.019,251.5782,108.458,0,999,9469,0.0016509,0.00041727,0,3859172,0 SPACEBEE-104,1 48890U 21059M   23071.94871220  .00041727  00000-0  16509-2 0  9996,2 48890  97.5801 207.0190 0008053 251.5782 108.4580 15.25303659 94699,2021-059M,48890,6868.011,94.407,495.407,484.345,0,
GENERATED VIA SPACETRACK.ORG API,18 SPCS,48890,SPACEBEE-104,PAYLOAD,U,21059M,2023/3/12 22:46,734080,15.25303659,0.0008053,97.5801,207.019,251.5782,108.458,0,999,9469,0.0016509,0.00041727,0,3859425,0 SPACEBEE-104,1 48890U 21059M   23071.94871220  .00041727  00000-0  16509-2 0  9996,2 48890  97.5801 207.0190 0008053 251.5782 108.4580 15.25303659 94699,2021-059M,48890,6868.011,94.407,495.407,484.345,0,
GENERATED VIA SPACETRACK.ORG API,18 SPCS,48890,SPACEBEE-104,PAYLOAD,U,21059M,2023/3/13 22:23,496160,15.25383356,0.0008042,97.5797,208.0156,248.1433,111.895,0,999,9484,0.0015071,0.00038159,0,3859631,0 SPACEBEE-104,1 48890U 21059M   23072.93272565  .00038159  00000-0  15071-2 0  9991,2 48890  97.5797 208.0156 0008042 248.1433 111.8950 15.25383356 94847,2021-059M,48890,6867.772,94.402,495.16,484.113,0,
GENERATED VIA SPACETRACK.ORG API,18 SPCS,48890,SPACEBEE-104,PAYLOAD,U,21059M,2023/3/14 1:32,992992,15.25392996,0.0008104,97.5798,208.1486,247.8386,112.1992,0,999,9486,0.0015223,0.00038558,0,3859779,0 SPACEBEE-104,1 48890U 21059M   23073.06392353  .00038558  00000-0  15223-2 0  9996,2 48890  97.5798 208.1486 0008104 247.8386 112.1992 15.25392996 94869,2021-059M,48890,6867.743,94.402,495.173,484.042,0,
GENERATED VIA SPACETRACK.ORG API,18 SPCS,48890,SPACEBEE-104,PAYLOAD,U,21059M,2023/3/14 7:49,756832,15.25417402,0.00081,97.5799,208.4142,247.037,113.0013,0,999,9490,0.0016605,0.00042116,0,3860373,0 SPACEBEE-104,1 48890U 21059M   23073.32631663  .00042116  00000-0  16605-2 0  9995,2 48890  97.5799 208.4142 0008100 247.0370 113.0013 15.25417402 94902,2021-059M,48890,6867.669,94.4,495.097,483.972,0,
GENERATED VIA SPACETRACK.ORG API,18 SPCS,48890,SPACEBEE-104,PAYLOAD,U,21059M,2023/3/14 22:00,641888,15.25474977,0.0008076,97.58,209.0125,245.2303,114.8095,0,999,9499,0.0018802,0.00047817,0,3860781,0 SPACEBEE-104,1 48890U 21059M   23073.91668567  .00047817  00000-0  18802-2 0  9997,2 48890  97.5800 209.0125 0008076 245.2303 114.8095 15.25474977 94999,2021-059M,48890,6867.497,94.397,494.908,483.815,0,
GENERATED VIA SPACETRACK.ORG API,18 SPCS,48890,SPACEBEE-104,PAYLOAD,U,21059M,2023/3/15 7:26,803904,15.25514109,0.0008065,97.5799,209.411,243.5131,116.5279,0,999,9505,0.0019163,0.000488,0,3861350,0 SPACEBEE-104,1 48890U 21059M   23074.31025236  .00048800  00000-0  19163-2 0  9996,2 48890  97.5799 209.4110 0008065 243.5131 116.5279 15.25514109 95055,2021-059M,48890,6867.379,94.394,494.783,483.706,0,
GENERATED VIA SPACETRACK.ORG API,18 SPCS,48890,SPACEBEE-104,PAYLOAD,U,21059M,2023/3/15 21:36,328000,15.2557278,0.0008041,97.58,210.0092,241.1834,118.8597,0,999,9514,0.0017753,0.00045261,0,3861599,0 SPACEBEE-104,1 48890U 21059M   23074.90058250  .00045261  00000-0  17753-2 0  9994,2 48890  97.5800 210.0092 0008041 241.1834 118.8597 15.25572780 95140,2021-059M,48890,6867.203,94.391,494.59,483.546,0,
GENERATED VIA SPACETRACK.ORG API,18 SPCS,48890,SPACEBEE-104,PAYLOAD,U,21059M,2023/3/16 2:20,414112,15.25591637,0.0008053,97.5801,210.2091,241.2793,118.7636,0,999,9517,0.0018071,0.00046105,0,3861726,0 SPACEBEE-104,1 48890U 21059M   23075.09735433  .00046105  00000-0  18071-2 0  9992,2 48890  97.5801 210.2091 0008053 241.2793 118.7636 15.25591637 95178,2021-059M,48890,6867.146,94.39,494.542,483.481,0,
GENERATED VIA SPACETRACK.ORG API,18 SPCS,48890,SPACEBEE-104,PAYLOAD,U,21059M,2023/3/16 8:37,213568,15.25619538,0.0008022,97.5798,210.4752,240.2515,119.7925,0,999,9521,0.00192,0.0004905,0,3862295,0 SPACEBEE-104,1 48890U 21059M   23075.35971312  .00049050  00000-0  19200-2 0  9996,2 48890  97.5798 210.4752 0008022 240.2515 119.7925 15.25619538 95214,2021-059M,48890,6867.063,94.388,494.436,483.419,0,
GENERATED VIA SPACETRACK.ORG API,18 SPCS,48890,SPACEBEE-104,PAYLOAD,U,21059M,2023/3/16 21:13,872448,15.25655542,0.0008056,97.5799,211.0071,238.4022,121.643,0,999,9529,0.0013945,0.00035579,0,3862592,0 SPACEBEE-104,1 48890U 21059M   23075.88441982  .00035579  00000-0  13945-2 0  9990,2 48890  97.5799 211.0071 0008056 238.4022 121.6430 15.25655542 95291,2021-059M,48890,6866.955,94.386,494.352,483.288,0,
GENERATED VIA SPACETRACK.ORG API,18 SPCS,48890,SPACEBEE-104,PAYLOAD,U,21059M,2023/3/16 22:48,634176,15.2565942,0.0008061,97.5801,211.0738,237.9165,122.129,0,999,9530,0.0013624,0.00034759,0,3862734,0 SPACEBEE-104,1 48890U 21059M   23075.95000734  .00034759  00000-0  13624-2 0  9997,2 48890  97.5801 211.0738 0008061 237.9165 122.1290 15.25659420 95304,2021-059M,48890,6866.943,94.385,494.343,483.273,0,
GENERATED VIA SPACETRACK.ORG API,18 SPCS,48890,SPACEBEE-104,PAYLOAD,U,21059M,2023/3/17 8:14,815744,15.25686174,0.0008086,97.58,211.4727,236.8807,123.1655,0,999,9536,0.0012973,0.00033114,0,3863278,0 SPACEBEE-104,1 48890U 21059M   23076.34352796  .00033114  00000-0  12973-2 0  9999,2 48890  97.5800 211.4727 0008086 236.8807 123.1655 15.25686174 95361,2021-059M,48890,6866.863,94.384,494.28,483.175,0,
GENERATED VIA SPACETRACK.ORG API,18 SPCS,48890,SPACEBEE-104,PAYLOAD,U,21059M,2023/3/17 20:50,408800,15.25725995,0.000807,97.58,212.0046,235.1743,124.8736,0,999,9544,0.001392,0.00035591,0,3863544,0 SPACEBEE-104,1 48890U 21059M   23076.86821075  .00035591  00000-0  13920-2 0  9991,2 48890  97.5800 212.0046 0008070 235.1743 124.8736 15.25725995 95448,2021-059M,48890,6866.743,94.381,494.15,483.067,0,
GENERATED VIA SPACETRACK.ORG API,18 SPCS,48890,SPACEBEE-104,PAYLOAD,U,21059M,2023/3/18 7:51,559296,15.25757356,0.000811,97.58,212.47,233.9223,126.1264,0,999,9551,0.0013948,0.00035697,0,3863990,0 SPACEBEE-104,1 48890U 21059M   23077.32729814  .00035697  00000-0  13948-2 0  9998,2 48890  97.5800 212.4700 0008110 233.9223 126.1264 15.25757356 95518,2021-059M,48890,6866.649,94.379,494.083,482.945,0,
GENERATED VIA SPACETRACK.ORG API,18 SPCS,48890,SPACEBEE-104,PAYLOAD,U,21059M,2023/3/18 22:01,335904,15.2579923,0.0008049,97.5806,213.0687,232.5087,127.542,0,999,9560,0.0013239,0.00033913,0,3864479,0 SPACEBEE-104,1 48890U 21059M   23077.91753861  .00033913  00000-0  13239-2 0  9994,2 48890  97.5806 213.0687 0008049 232.5087 127.5420 15.25799230 95605,2021-059M,48890,6866.524,94.377,493.915,482.862,0,
GENERATED VIA SPACETRACK.ORG API,18 SPCS,48890,SPACEBEE-104,PAYLOAD,U,21059M,2023/3/19 7:27,367328,15.2582764,0.0008091,97.5804,213.4676,230.0613,129.9914,0,999,9566,0.0013204,0.00033852,0,3865049,0 SPACEBEE-104,1 48890U 21059M   23078.31102277  .00033852  00000-0  13204-2 0  9992,2 48890  97.5804 213.4676 0008091 230.0613 129.9914 15.25827640 95667,2021-059M,48890,6866.438,94.375,493.859,482.748,0,
GENERATED VIA SPACETRACK.ORG API,18 SPCS,48890,SPACEBEE-104,PAYLOAD,U,21059M,2023/3/19 20:03,689632,15.25868772,0.0008062,97.5808,213.9996,228.1711,131.8839,0,999,9574,0.0013395,0.00034387,0,3865157,0 SPACEBEE-104,1 48890U 21059M   23078.83565613  .00034387  00000-0  13395-2 0  9991,2 48890  97.5808 213.9996 0008062 228.1711 131.8839 15.25868772 95744,2021-059M,48890,6866.315,94.372,493.716,482.644,0,
GENERATED VIA SPACETRACK.ORG API,18 SPCS,48890,SPACEBEE-104,PAYLOAD,U,21059M,2023/3/19 21:37,649568,15.25873377,0.0008066,97.5809,214.0661,227.9524,132.1028,0,999,9575,0.001336,0.00034301,0,3865354,0 SPACEBEE-104,1 48890U 21059M   23078.90123437  .00034301  00000-0  13360-2 0  9991,2 48890  97.5809 214.0661 0008066 227.9524 132.1028 15.25873377 95751,2021-059M,48890,6866.301,94.372,493.704,482.628,0,
GENERATED VIA SPACETRACK.ORG API,18 SPCS,48890,SPACEBEE-104,PAYLOAD,U,21059M,2023/3/20 8:38,863680,15.2590931,0.0008057,97.5812,214.5317,226.3005,133.7566,0,999,9582,0.0014498,0.00037285,0,3865912,0 SPACEBEE-104,1 48890U 21059M   23079.36027620  .00037285  00000-0  14498-2 0  9996,2 48890  97.5812 214.5317 0008057 226.3005 133.7566 15.25909310 95824,2021-059M,48890,6866.193,94.37,493.59,482.526,0,
GENERATED VIA SPACETRACK.ORG API,18 SPCS,48890,SPACEBEE-104,PAYLOAD,U,21059M,2023/3/20 21:14,837632,15.25950063,0.0008073,97.5815,215.0638,224.594,135.4649,0,999,9590,0.0014388,0.00037045,0,3866260,0 SPACEBEE-104,1 48890U 21059M   23079.88488238  .00037045  00000-0  14388-2 0  9991,2 48890  97.5815 215.0638 0008073 224.5940 135.4649 15.25950063 95906,2021-059M,48890,6866.071,94.367,493.479,482.393,0,
